STARLINK-2066_new
1 17673C 21012BF  21326.10832714  .00003065  00000-0  20527-3 0  3260
2 17673  53.0548 253.2487 0002062  68.3644   9.1780 15.06408767    16
STARLINK-2066_old
1 27673C 21012BF  21325.15936881  .00008060  00000-0  54001-3 0  3257
2 27673  53.0550 257.5084 0002041  67.0403 261.4066 15.06392774    15
